[{"OBJECT_NAME":"YAOGAN-30 02C","OBJECT_ID":"2017-058C","EPOCH":"2026-03-09T23:23:41.320320","MEAN_MOTION":15.0385567,"ECCENTRICITY":0.00042194,"INCLINATION":34.9965,"RA_OF_ASC_NODE":266.8068,"ARG_OF_PERICENTER":49.9722,"MEAN_ANOMALY":310.1357,"EPHEMERIS_TYPE":0,"CLASSIFICATION_TYPE":"U","NORAD_CAT_ID":42947,"ELEMENT_SET_NO":999,"REV_AT_EPOCH":46087,"BSTAR":0.00031396475,"MEAN_MOTION_DOT":4.384e-5,"MEAN_MOTION_DDOT":0},{"OBJECT_NAME":"STARLINK-34940","OBJECT_ID":"2025-191U","EPOCH":"2026-03-09T15:29:16.817856","MEAN_MOTION":15.05659637,"ECCENTRICITY":0.0001938,"INCLINATION":97.6,"RA_OF_ASC_NODE":301.493,"ARG_OF_PERICENTER":95.4795,"MEAN_ANOMALY":264.6653,"EPHEMERIS_TYPE":0,"CLASSIFICATION_TYPE":"U","NORAD_CAT_ID":65397,"ELEMENT_SET_NO":999,"REV_AT_EPOCH":3026,"BSTAR":-0.00019231,"MEAN_MOTION_DOT":-2.835e-5,"MEAN_MOTION_DDOT":0}]
